[{"OBJECT_NAME":"ONEWEB-0284","OBJECT_ID":"2021-060AM","EPOCH":"2026-02-10T14:52:54.608736","MEAN_MOTION":13.16594419,"ECCENTRICITY":0.00018293,"INCLINATION":87.9002,"RA_OF_ASC_NODE":253.9643,"ARG_OF_PERICENTER":99.9948,"MEAN_ANOMALY":260.139,"EPHEMERIS_TYPE":0,"CLASSIFICATION_TYPE":"U","NORAD_CAT_ID":49002,"ELEMENT_SET_NO":999,"REV_AT_EPOCH":22294,"BSTAR":-0.00021707481,"MEAN_MOTION_DOT":-7.0e-7,"MEAN_MOTION_DDOT":0},{"OBJECT_NAME":"ONEWEB-0285","OBJECT_ID":"2021-075A","EPOCH":"2026-02-10T21:18:21.987936","MEAN_MOTION":13.12445033,"ECCENTRICITY":0.00018467,"INCLINATION":87.8963,"RA_OF_ASC_NODE":15.7275,"ARG_OF_PERICENTER":85.8789,"MEAN_ANOMALY":274.255,"EPHEMERIS_TYPE":0,"CLASSIFICATION_TYPE":"U","NORAD_CAT_ID":49075,"ELEMENT_SET_NO":999,"REV_AT_EPOCH":21864,"BSTAR":-0.00024485728,"MEAN_MOTION_DOT":-7.5e-7,"MEAN_MOTION_DDOT":0},{"OBJECT_NAME":"ONEWEB-0286","OBJECT_ID":"2021-075B","EPOCH":"2026-02-10T22:42:20.047968","MEAN_MOTION":13.12441081,"ECCENTRICITY":0.00019953,"INCLINATION":87.895,"RA_OF_ASC_NODE":15.7444,"ARG_OF_PERICENTER":76.6756,"MEAN_ANOMALY":283.4595,"EPHEMERIS_TYPE":0,"CLASSIFICATION_TYPE":"U","NORAD_CAT_ID":49076,"ELEMENT_SET_NO":999,"REV_AT_EPOCH":21800,"BSTAR":-0.00099135722,"MEAN_MOTION_DOT":-3.44e-6,"MEAN_MOTION_DDOT":0},{"OBJECT_NAME":"ONEWEB-0287","OBJECT_ID":"2021-075C","EPOCH":"2026-02-10T23:03:29.278656","MEAN_MOTION":13.17650116,"ECCENTRICITY":0.00022645,"INCLINATION":87.9105,"RA_OF_ASC_NODE":30.9413,"ARG_OF_PERICENTER":80.156,"MEAN_ANOMALY":279.9827,"EPHEMERIS_TYPE":0,"CLASSIFICATION_TYPE":"U","NORAD_CAT_ID":49077,"ELEMENT_SET_NO":999,"REV_AT_EPOCH":21700,"BSTAR":9.3637046e-5,"MEAN_MOTION_DOT":4.9e-7,"MEAN_MOTION_DDOT":0},{"OBJECT_NAME":"ONEWEB-0288","OBJECT_ID":"2021-075D","EPOCH":"2026-02-10T22:08:23.504064","MEAN_MOTION":13.1244234,"ECCENTRICITY":0.00019461,"INCLINATION":87.8963,"RA_OF_ASC_NODE":15.7146,"ARG_OF_PERICENTER":83.5023,"MEAN_ANOMALY":276.6327,"EPHEMERIS_TYPE":0,"CLASSIFICATION_TYPE":"U","NORAD_CAT_ID":49078,"ELEMENT_SET_NO":999,"REV_AT_EPOCH":21862,"BSTAR":0.00088729977,"MEAN_MOTION_DOT":3.32e-6,"MEAN_MOTION_DDOT":0},{"OBJECT_NAME":"ONEWEB-0289","OBJECT_ID":"2021-075E","EPOCH":"2026-02-10T22:09:49.007232","MEAN_MOTION":13.17649322,"ECCENTRICITY":0.00020448,"INCLINATION":87.9103,"RA_OF_ASC_NODE":30.9601,"ARG_OF_PERICENTER":98.2014,"MEAN_ANOMALY":261.9349,"EPHEMERIS_TYPE":0,"CLASSIFICATION_TYPE":"U","NORAD_CAT_ID":49079,"ELEMENT_SET_NO":999,"REV_AT_EPOCH":21757,"BSTAR":9.862905e-5,"MEAN_MOTION_DOT":5.1e-7,"MEAN_MOTION_DDOT":0},{"OBJECT_NAME":"ONEWEB-0290","OBJECT_ID":"2021-075F","EPOCH":"2026-02-10T21:31:07.007232","MEAN_MOTION":13.17647633,"ECCENTRICITY":0.00018972,"INCLINATION":87.9114,"RA_OF_ASC_NODE":30.9325,"ARG_OF_PERICENTER":105.1435,"MEAN_ANOMALY":254.9906,"EPHEMERIS_TYPE":0,"CLASSIFICATION_TYPE":"U","NORAD_CAT_ID":49080,"ELEMENT_SET_NO":999,"REV_AT_EPOCH":21698,"BSTAR":5.142201e-5,"MEAN_MOTION_DOT":3.3e-7,"MEAN_MOTION_DDOT":0},{"OBJECT_NAME":"ONEWEB-0291","OBJECT_ID":"2021-075G","EPOCH":"2026-02-10T22:58:36.387840","MEAN_MOTION":13.1764839,"ECCENTRICITY":0.00022582,"INCLINATION":87.9114,"RA_OF_ASC_NODE":30.9282,"ARG_OF_PERICENTER":86.9732,"MEAN_ANOMALY":273.1658,"EPHEMERIS_TYPE":0,"CLASSIFICATION_TYPE":"U","NORAD_CAT_ID":49081,"ELEMENT_SET_NO":999,"REV_AT_EPOCH":21698,"BSTAR":0.00040373427,"MEAN_MOTION_DOT":1.7e-6,"MEAN_MOTION_DDOT":0},{"OBJECT_NAME":"ONEWEB-0293","OBJECT_ID":"2021-075H","EPOCH":"2026-02-10T23:35:03.348960","MEAN_MOTION":13.17648108,"ECCENTRICITY":0.00019517,"INCLINATION":87.9103,"RA_OF_ASC_NODE":30.9378,"ARG_OF_PERICENTER":90.9247,"MEAN_ANOMALY":269.2108,"EPHEMERIS_TYPE":0,"CLASSIFICATION_TYPE":"U","NORAD_CAT_ID":49082,"ELEMENT_SET_NO":999,"REV_AT_EPOCH":21701,"BSTAR":4.1826268e-5,"MEAN_MOTION_DOT":2.9e-7,"MEAN_MOTION_DDOT":0},{"OBJECT_NAME":"ONEWEB-0294","OBJECT_ID":"2021-075J","EPOCH":"2026-02-10T22:18:08.120160","MEAN_MOTION":13.12441723,"ECCENTRICITY":0.00019524,"INCLINATION":87.896,"RA_OF_ASC_NODE":15.7159,"ARG_OF_PERICENTER":94.3499,"MEAN_ANOMALY":265.7853,"EPHEMERIS_TYPE":0,"CLASSIFICATION_TYPE":"U","NORAD_CAT_ID":49083,"ELEMENT_SET_NO":999,"REV_AT_EPOCH":21801,"BSTAR":0.00015119413,"MEAN_MOTION_DOT":6.7e-7,"MEAN_MOTION_DDOT":0},{"OBJECT_NAME":"ONEWEB-0295","OBJECT_ID":"2021-075K","EPOCH":"2026-02-10T23:33:51.612768","MEAN_MOTION":13.17648572,"ECCENTRICITY":0.00022261,"INCLINATION":87.9103,"RA_OF_ASC_NODE":30.942,"ARG_OF_PERICENTER":84.6466,"MEAN_ANOMALY":275.4919,"EPHEMERIS_TYPE":0,"CLASSIFICATION_TYPE":"U","NORAD_CAT_ID":49084,"ELEMENT_SET_NO":999,"REV_AT_EPOCH":21697,"BSTAR":6.7165649e-5,"MEAN_MOTION_DOT":3.9e-7,"MEAN_MOTION_DDOT":0},{"OBJECT_NAME":"ONEWEB-0296","OBJECT_ID":"2021-075L","EPOCH":"2026-02-10T21:48:52.485120","MEAN_MOTION":13.12443723,"ECCENTRICITY":0.00022519,"INCLINATION":87.8962,"RA_OF_ASC_NODE":15.7232,"ARG_OF_PERICENTER":85.7912,"MEAN_ANOMALY":274.3474,"EPHEMERIS_TYPE":0,"CLASSIFICATION_TYPE":"U","NORAD_CAT_ID":49085,"ELEMENT_SET_NO":999,"REV_AT_EPOCH":21801,"BSTAR":0.001384864,"MEAN_MOTION_DOT":5.11e-6,"MEAN_MOTION_DDOT":0},{"OBJECT_NAME":"ONEWEB-0297","OBJECT_ID":"2021-075M","EPOCH":"2026-02-10T22:32:46.504032","MEAN_MOTION":13.12441356,"ECCENTRICITY":0.00019581,"INCLINATION":87.8953,"RA_OF_ASC_NODE":15.7443,"ARG_OF_PERICENTER":83.1381,"MEAN_ANOMALY":276.997,"EPHEMERIS_TYPE":0,"CLASSIFICATION_TYPE":"U","NORAD_CAT_ID":49086,"ELEMENT_SET_NO":999,"REV_AT_EPOCH":21862,"BSTAR":-0.00063439825,"MEAN_MOTION_DOT":-2.15e-6,"MEAN_MOTION_DDOT":0},{"OBJECT_NAME":"ONEWEB-0298","OBJECT_ID":"2021-075N","EPOCH":"2026-02-10T23:40:08.175936","MEAN_MOTION":13.17648128,"ECCENTRICITY":0.00018623,"INCLINATION":87.9101,"RA_OF_ASC_NODE":30.9377,"ARG_OF_PERICENTER":82.7252,"MEAN_ANOMALY":277.4091,"EPHEMERIS_TYPE":0,"CLASSIFICATION_TYPE":"U","NORAD_CAT_ID":49087,"ELEMENT_SET_NO":999,"REV_AT_EPOCH":21700,"BSTAR":0.00013707005,"MEAN_MOTION_DOT":6.6e-7,"MEAN_MOTION_DDOT":0},{"OBJECT_NAME":"ONEWEB-0299","OBJECT_ID":"2021-075P","EPOCH":"2026-02-10T21:52:59.735136","MEAN_MOTION":13.17648573,"ECCENTRICITY":0.0002027,"INCLINATION":87.9114,"RA_OF_ASC_NODE":30.9203,"ARG_OF_PERICENTER":82.9253,"MEAN_ANOMALY":277.2109,"EPHEMERIS_TYPE":0,"CLASSIFICATION_TYPE":"U","NORAD_CAT_ID":49088,"ELEMENT_SET_NO":999,"REV_AT_EPOCH":21697,"BSTAR":3.0836727e-5,"MEAN_MOTION_DOT":2.5e-7,"MEAN_MOTION_DDOT":0},{"OBJECT_NAME":"ONEWEB-0300","OBJECT_ID":"2021-075Q","EPOCH":"2026-02-10T22:21:47.808576","MEAN_MOTION":13.12440342,"ECCENTRICITY":0.00017376,"INCLINATION":87.8961,"RA_OF_ASC_NODE":15.7113,"ARG_OF_PERICENTER":73.3834,"MEAN_ANOMALY":286.7485,"EPHEMERIS_TYPE":0,"CLASSIFICATION_TYPE":"U","NORAD_CAT_ID":49089,"ELEMENT_SET_NO":999,"REV_AT_EPOCH":21864,"BSTAR":0.00012091412,"MEAN_MOTION_DOT":5.6e-7,"MEAN_MOTION_DDOT":0},{"OBJECT_NAME":"ONEWEB-0301","OBJECT_ID":"2021-075R","EPOCH":"2026-02-10T21:58:37.824384","MEAN_MOTION":13.12442596,"ECCENTRICITY":0.00016164,"INCLINATION":87.8963,"RA_OF_ASC_NODE":15.7151,"ARG_OF_PERICENTER":75.9979,"MEAN_ANOMALY":284.1329,"EPHEMERIS_TYPE":0,"CLASSIFICATION_TYPE":"U","NORAD_CAT_ID":49090,"ELEMENT_SET_NO":999,"REV_AT_EPOCH":21800,"BSTAR":0.0012890051,"MEAN_MOTION_DOT":4.76e-6,"MEAN_MOTION_DDOT":0}]
