ONEWEB-0284             
1 49002U 21060AM  26041.62007649 -.00000070  00000+0 -21707-3 0  9999
2 49002  87.9002 253.9643 0001829  99.9948 260.1390 13.16594419222946
ONEWEB-0285             
1 49075U 21075A   26041.88775449 -.00000075  00000+0 -24486-3 0  9995
2 49075  87.8963  15.7275 0001846  85.8789 274.2550 13.12445033218641
ONEWEB-0286             
1 49076U 21075B   26041.94606537 -.00000344  00000+0 -99136-3 0  9997
2 49076  87.8950  15.7444 0001995  76.6756 283.4595 13.12441081218003
ONEWEB-0287             
1 49077U 21075C   26041.96075554  .00000049  00000+0  93637-4 0  9990
2 49077  87.9105  30.9413 0002264  80.1560 279.9827 13.17650116217008
ONEWEB-0288             
1 49078U 21075D   26041.92249426  .00000332  00000+0  88730-3 0  9990
2 49078  87.8963  15.7146 0001946  83.5023 276.6327 13.12442340218622
ONEWEB-0289             
1 49079U 21075E   26041.92348388  .00000051  00000+0  98629-4 0  9995
2 49079  87.9103  30.9601 0002044  98.2014 261.9349 13.17649322217576
ONEWEB-0290             
1 49080U 21075F   26041.89660888  .00000033  00000+0  51422-4 0  9995
2 49080  87.9114  30.9325 0001897 105.1435 254.9906 13.17647633216981
ONEWEB-0291             
1 49081U 21075G   26041.95736560  .00000170  00000+0  40373-3 0  9998
2 49081  87.9114  30.9282 0002258  86.9732 273.1658 13.17648390216980
ONEWEB-0293             
1 49082U 21075H   26041.98267765  .00000029  00000+0  41826-4 0  9996
2 49082  87.9103  30.9378 0001951  90.9247 269.2108 13.17648108217018
ONEWEB-0294             
1 49083U 21075J   26041.92926065  .00000067  00000+0  15119-3 0  9993
2 49083  87.8960  15.7159 0001952  94.3499 265.7853 13.12441723218013
ONEWEB-0295             
1 49084U 21075K   26041.98184737  .00000039  00000+0  67166-4 0  9991
2 49084  87.9103  30.9420 0002226  84.6466 275.4919 13.17648572216975
ONEWEB-0296             
1 49085U 21075L   26041.90894080  .00000511  00000+0  13849-2 0  9995
2 49085  87.8962  15.7232 0002251  85.7912 274.3474 13.12443723218013
ONEWEB-0297             
1 49086U 21075M   26041.93942713 -.00000215  00000+0 -63440-3 0  9992
2 49086  87.8953  15.7443 0001958  83.1381 276.9970 13.12441356218629
ONEWEB-0298             
1 49087U 21075N   26041.98620574  .00000066  00000+0  13707-3 0  9999
2 49087  87.9101  30.9377 0001862  82.7252 277.4091 13.17648128217009
ONEWEB-0299             
1 49088U 21075P   26041.91180249  .00000025  00000+0  30837-4 0  9992
2 49088  87.9114  30.9203 0002027  82.9253 277.2109 13.17648573216976
ONEWEB-0300             
1 49089U 21075Q   26041.93180334  .00000056  00000+0  12091-3 0  9995
2 49089  87.8961  15.7113 0001737  73.3834 286.7485 13.12440342218640
ONEWEB-0301             
1 49090U 21075R   26041.91571556  .00000476  00000+0  12890-2 0  9997
2 49090  87.8963  15.7151 0001616  75.9979 284.1329 13.12442596218002
